CCSDS_OMM_VERS = 2.0
CREATION_DATE  = 
ORIGINATOR     = 

OBJECT_NAME    = PROGRESS-MS 32
OBJECT_ID      = 2025-204A
CENTER_NAME    = EARTH
REF_FRAME      = TEME
TIME_SYSTEM    = UTC
MEAN_ELEMENT_THEORY = SGP/SGP4

EPOCH          = 2025-11-28T13:03:55.135296
MEAN_MOTION    = 15.49168962
ECCENTRICITY   = .00037452
INCLINATION    = 51.6312
RA_OF_ASC_NODE = 212.7497
ARG_OF_PERICENTER = 179.2752
MEAN_ANOMALY   = 180.8242

EPHEMERIS_TYPE = 0
CLASSIFICATION_TYPE = U
NORAD_CAT_ID   = 65586
ELEMENT_SET_NO = 999
REV_AT_EPOCH   = 27
BSTAR          = .17015416E-3
MEAN_MOTION_DOT = .8991E-4
MEAN_MOTION_DDOT = 0

CCSDS_OMM_VERS = 2.0
CREATION_DATE  = 
ORIGINATOR     = 

OBJECT_NAME    = CYGNUS NG-23
OBJECT_ID      = 2025-208A
CENTER_NAME    = EARTH
REF_FRAME      = TEME
TIME_SYSTEM    = UTC
MEAN_ELEMENT_THEORY = SGP/SGP4

EPOCH          = 2025-11-28T13:03:55.135296
MEAN_MOTION    = 15.49168962
ECCENTRICITY   = .00037452
INCLINATION    = 51.6312
RA_OF_ASC_NODE = 212.7497
ARG_OF_PERICENTER = 179.2752
MEAN_ANOMALY   = 180.8242

EPHEMERIS_TYPE = 0
CLASSIFICATION_TYPE = U
NORAD_CAT_ID   = 65616
ELEMENT_SET_NO = 999
REV_AT_EPOCH   = 22
BSTAR          = .17015416E-3
MEAN_MOTION_DOT = .8991E-4
MEAN_MOTION_DDOT = 0

CCSDS_OMM_VERS = 2.0
CREATION_DATE  = 
ORIGINATOR     = 

OBJECT_NAME    = DRAGONFLY
OBJECT_ID      = 1998-067XH
CENTER_NAME    = EARTH
REF_FRAME      = TEME
TIME_SYSTEM    = UTC
MEAN_ELEMENT_THEORY = SGP/SGP4

EPOCH          = 2025-11-29T01:07:41.414304
MEAN_MOTION    = 15.67011643
ECCENTRICITY   = .0006357
INCLINATION    = 51.6267
RA_OF_ASC_NODE = 205.6040
ARG_OF_PERICENTER = 196.4876
MEAN_ANOMALY   = 163.5914

EPHEMERIS_TYPE = 0
CLASSIFICATION_TYPE = U
NORAD_CAT_ID   = 65729
ELEMENT_SET_NO = 999
REV_AT_EPOCH   = 1101
BSTAR          = .116E-2
MEAN_MOTION_DOT = .127511E-2
MEAN_MOTION_DDOT = 0

CCSDS_OMM_VERS = 2.0
CREATION_DATE  = 
ORIGINATOR     = 

OBJECT_NAME    = 1998-067XJ
OBJECT_ID      = 1998-067XJ
CENTER_NAME    = EARTH
REF_FRAME      = TEME
TIME_SYSTEM    = UTC
MEAN_ELEMENT_THEORY = SGP/SGP4

EPOCH          = 2025-11-29T00:52:54.012864
MEAN_MOTION    = 16.01129071
ECCENTRICITY   = .0011699
INCLINATION    = 51.6156
RA_OF_ASC_NODE = 200.9674
ARG_OF_PERICENTER = 211.4242
MEAN_ANOMALY   = 148.6070

EPHEMERIS_TYPE = 0
CLASSIFICATION_TYPE = U
NORAD_CAT_ID   = 65730
ELEMENT_SET_NO = 999
REV_AT_EPOCH   = 1107
BSTAR          = .25945E-2
MEAN_MOTION_DOT = .1442919E-1
MEAN_MOTION_DDOT = .11845E-2

CCSDS_OMM_VERS = 2.0
CREATION_DATE  = 
ORIGINATOR     = 

OBJECT_NAME    = 1998-067XK
OBJECT_ID      = 1998-067XK
CENTER_NAME    = EARTH
REF_FRAME      = TEME
TIME_SYSTEM    = UTC
MEAN_ELEMENT_THEORY = SGP/SGP4

EPOCH          = 2025-11-29T01:28:41.254176
MEAN_MOTION    = 15.62709008
ECCENTRICITY   = .0006023
INCLINATION    = 51.6292
RA_OF_ASC_NODE = 206.4604
ARG_OF_PERICENTER = 170.6962
MEAN_ANOMALY   = 189.4145

EPHEMERIS_TYPE = 0
CLASSIFICATION_TYPE = U
NORAD_CAT_ID   = 65731
ELEMENT_SET_NO = 999
REV_AT_EPOCH   = 1100
BSTAR          = .9003E-3
MEAN_MOTION_DOT = .8277E-3
MEAN_MOTION_DDOT = 0

CCSDS_OMM_VERS = 2.0
CREATION_DATE  = 
ORIGINATOR     = 

OBJECT_NAME    = RSP-03
OBJECT_ID      = 1998-067XL
CENTER_NAME    = EARTH
REF_FRAME      = TEME
TIME_SYSTEM    = UTC
MEAN_ELEMENT_THEORY = SGP/SGP4

EPOCH          = 2025-11-29T00:34:13.048032
MEAN_MOTION    = 15.64738825
ECCENTRICITY   = .0006905
INCLINATION    = 51.6270
RA_OF_ASC_NODE = 206.2029
ARG_OF_PERICENTER = 172.5964
MEAN_ANOMALY   = 187.5134

EPHEMERIS_TYPE = 0
CLASSIFICATION_TYPE = U
NORAD_CAT_ID   = 65732
ELEMENT_SET_NO = 999
REV_AT_EPOCH   = 1101
BSTAR          = .10124E-2
MEAN_MOTION_DOT = .101188E-2
MEAN_MOTION_DDOT = 0

CCSDS_OMM_VERS = 2.0
CREATION_DATE  = 
ORIGINATOR     = 

OBJECT_NAME    = GHS-01
OBJECT_ID      = 1998-067XM
CENTER_NAME    = EARTH
REF_FRAME      = TEME
TIME_SYSTEM    = UTC
MEAN_ELEMENT_THEORY = SGP/SGP4

EPOCH          = 2025-11-29T00:26:24.683136
MEAN_MOTION    = 15.68769203
ECCENTRICITY   = .0006848
INCLINATION    = 51.6287
RA_OF_ASC_NODE = 205.4180
ARG_OF_PERICENTER = 194.8011
MEAN_ANOMALY   = 165.2786

EPHEMERIS_TYPE = 0
CLASSIFICATION_TYPE = U
NORAD_CAT_ID   = 65733
ELEMENT_SET_NO = 999
REV_AT_EPOCH   = 1102
BSTAR          = .1289E-2
MEAN_MOTION_DOT = .152819E-2
MEAN_MOTION_DDOT = 0

CCSDS_OMM_VERS = 2.0
CREATION_DATE  = 
ORIGINATOR     = 

OBJECT_NAME    = YOTSUBA-KULOVER
OBJECT_ID      = 1998-067XN
CENTER_NAME    = EARTH
REF_FRAME      = TEME
TIME_SYSTEM    = UTC
MEAN_ELEMENT_THEORY = SGP/SGP4

EPOCH          = 2025-11-28T02:09:52.380576
MEAN_MOTION    = 15.57098024
ECCENTRICITY   = .00024446
INCLINATION    = 51.6290
RA_OF_ASC_NODE = 213.4702
ARG_OF_PERICENTER = 143.7516
MEAN_ANOMALY   = 216.3642

EPHEMERIS_TYPE = 0
CLASSIFICATION_TYPE = U
NORAD_CAT_ID   = 65941
ELEMENT_SET_NO = 999
REV_AT_EPOCH   = 757
BSTAR          = .89666102E-3
MEAN_MOTION_DOT = .66291E-3
MEAN_MOTION_DDOT = 0

CCSDS_OMM_VERS = 2.0
CREATION_DATE  = 
ORIGINATOR     = 

OBJECT_NAME    = BOTAN
OBJECT_ID      = 1998-067XP
CENTER_NAME    = EARTH
REF_FRAME      = TEME
TIME_SYSTEM    = UTC
MEAN_ELEMENT_THEORY = SGP/SGP4

EPOCH          = 2025-11-28T01:23:32.234208
MEAN_MOTION    = 15.59384100
ECCENTRICITY   = .00046611
INCLINATION    = 51.6292
RA_OF_ASC_NODE = 213.2561
ARG_OF_PERICENTER = 146.1415
MEAN_ANOMALY   = 213.9876

EPHEMERIS_TYPE = 0
CLASSIFICATION_TYPE = U
NORAD_CAT_ID   = 65942
ELEMENT_SET_NO = 999
REV_AT_EPOCH   = 757
BSTAR          = .11306353E-2
MEAN_MOTION_DOT = .91596E-3
MEAN_MOTION_DDOT = 0

CCSDS_OMM_VERS = 2.0
CREATION_DATE  = 
ORIGINATOR     = 

OBJECT_NAME    = E-KAGAKU-1
OBJECT_ID      = 1998-067XQ
CENTER_NAME    = EARTH
REF_FRAME      = TEME
TIME_SYSTEM    = UTC
MEAN_ELEMENT_THEORY = SGP/SGP4

EPOCH          = 2025-11-27T23:04:40.565568
MEAN_MOTION    = 15.57053935
ECCENTRICITY   = .00038752
INCLINATION    = 51.6304
RA_OF_ASC_NODE = 214.1133
ARG_OF_PERICENTER = 126.2761
MEAN_ANOMALY   = 233.8589

EPHEMERIS_TYPE = 0
CLASSIFICATION_TYPE = U
NORAD_CAT_ID   = 65943
ELEMENT_SET_NO = 999
REV_AT_EPOCH   = 755
BSTAR          = .84930638E-3
MEAN_MOTION_DOT = .62641E-3
MEAN_MOTION_DDOT = 0

CCSDS_OMM_VERS = 2.0
CREATION_DATE  = 
ORIGINATOR     = 

OBJECT_NAME    = HRC MONOBLOCK CAMERA
OBJECT_ID      = 1998-067XR
CENTER_NAME    = EARTH
REF_FRAME      = TEME
TIME_SYSTEM    = UTC
MEAN_ELEMENT_THEORY = SGP/SGP4

EPOCH          = 2025-11-29T04:57:14.561856
MEAN_MOTION    = 15.52898360
ECCENTRICITY   = .0004597
INCLINATION    = 51.6295
RA_OF_ASC_NODE = 208.9203
ARG_OF_PERICENTER = 130.2215
MEAN_ANOMALY   = 229.9177

EPHEMERIS_TYPE = 0
CLASSIFICATION_TYPE = U
NORAD_CAT_ID   = 66052
ELEMENT_SET_NO = 999
REV_AT_EPOCH   = 673
BSTAR          = .57274E-3
MEAN_MOTION_DOT = .3596E-3
MEAN_MOTION_DDOT = 0

CCSDS_OMM_VERS = 2.0
CREATION_DATE  = 
ORIGINATOR     = 

OBJECT_NAME    = HTV-X1
OBJECT_ID      = 2025-241A
CENTER_NAME    = EARTH
REF_FRAME      = TEME
TIME_SYSTEM    = UTC
MEAN_ELEMENT_THEORY = SGP/SGP4

EPOCH          = 2025-11-28T13:03:55.135296
MEAN_MOTION    = 15.49168962
ECCENTRICITY   = .00037452
INCLINATION    = 51.6312
RA_OF_ASC_NODE = 212.7497
ARG_OF_PERICENTER = 179.2752
MEAN_ANOMALY   = 180.8242

EPHEMERIS_TYPE = 0
CLASSIFICATION_TYPE = U
NORAD_CAT_ID   = 66174
ELEMENT_SET_NO = 999
REV_AT_EPOCH   = 51
BSTAR          = .17015416E-3
MEAN_MOTION_DOT = .8991E-4
MEAN_MOTION_DDOT = 0

